satname,norad_id,inclination_deg,eccentricity,mean_motion_rev_per_day,perigee_km,apogee_km,l1,l2
STARLINK-1008,44714,53.0493,0.0001368,15.06415906,546.2154277542722,548.1101897819508,1 44714U 19074B   25280.37724496  .00005163  00000+0  36508-3 0  9999,2 44714  53.0493 154.8642 0001368  87.3282 272.7864 15.06415906325647
STARLINK-1010,44716,53.046,0.0004359,15.84947733,313.55373186123234,319.3900919106154,1 44716U 19074D   25280.81889228  .00248464  00000+0  10125-2 0  9994,2 44716  53.0460  92.7854 0004359 103.6783 256.4725 15.84947733326537
STARLINK-1011,44717,53.049,0.0006304,15.74277164,342.4495519706661,350.9282124429519,1 44717U 19074E   25279.94647207  .00170798  00000+0  11415-2 0  9993,2 44717  53.0490 152.2026 0006304 122.6666 237.4961 15.74277164325642
STARLINK-1012,44718,53.0541,0.0001756,15.06400387,545.9942808407741,548.4264628377641,1 44718U 19074F   25280.35513566  .00001037  00000+0  88510-4 0  9992,2 44718  53.0541 154.9666 0001756  92.7068 267.4122 15.06400387325639
STARLINK-1017,44723,53.0522,0.0004742,15.12607217,524.9774090498368,531.5274287747334,1 44723U 19074L   25280.38041168  .00040375  00000+0  22892-2 0  9992,2 44723  53.0522 152.6843 0004742  93.4395 266.7139 15.12607217325677
STARLINK-1019,44724,53.0479,0.0001737,15.06395319,546.0229690297174,548.4288401027643,1 44724U 19074M   25280.61684049  .00001148  00000+0  95954-4 0  9996,2 44724  53.0479 153.7902 0001737  71.5424 288.5754 15.06395319325673
STARLINK-1020,44725,53.054,0.0001368,15.06407695,546.2405895155134,548.1353584283925,1 44725U 19074N   25280.68872228  .00007210  00000+0  50232-3 0  9997,2 44725  53.0540 173.4684 0001368 101.1036 259.0107 15.06407695325405
STARLINK-1021,44726,53.035,0.0007342,16.16657162,223.79294331408073,233.4943400082957,1 44726U 19074P   25280.88777072  .01663432  24826-2  11262-2 0  9990,2 44726  53.0350  83.2157 0007342 313.1880  46.8543 16.16657162326683
STARLINK-1029,44734,53.0521,0.0003747,16.03466373,262.3384631386234,267.31670079635023,1 44734U 19074X   25280.62126220  .00606596  18350-3  94779-3 0  9992,2 44734  53.0521   9.5030 0003747   8.3864 351.7229 16.03466373327670
STARLINK-1031,44736,53.0511,0.0009025,15.41417237,435.77059092747186,448.0808040964821,1 44736U 19074Z   25279.94629486  .00078996  00000+0  18489-2 0  9998,2 44736  53.0511 152.7265 0009025 101.2470 258.9550 15.41417237325649
STARLINK-1036,44741,53.053,0.0001571,15.06400583,546.121799150078,548.297743105566,1 44741U 19074AE  25279.98839045  .00001783  00000+0  13855-3 0  9995,2 44741  53.0530 176.6132 0001571  92.3570 267.7599 15.06400583325304
STARLINK-1039,44744,53.0515,0.0006783,15.10989681,528.4925188507696,537.8684121244496,1 44744U 19074AH  25280.47338314  .00018572  00000+0  11139-2 0  9993,2 44744  53.0515 193.3114 0006783  70.6551 289.5173 15.10989681325119
STARLINK-1042,44747,53.0451,0.0003424,15.41829518,438.3750927365845,443.0446390703555,1 44747U 19074AL  25280.48758275  .00021563  00000+0  50903-3 0  9996,2 44747  53.0451 105.3787 0003424  74.8212 285.3171 15.41829518326376
STARLINK-1043,44748,53.0535,0.0001271,15.06410198,546.3000948842091,548.0605105425602,1 44748U 19074AM  25280.75690300  .00011849  00000+0  81278-3 0  9996,2 44748  53.0535 193.1618 0001271  98.2682 261.8451 15.06410198325142
STARLINK-1046,44751,53.0532,0.0001425,15.06393048,546.2459996932002,548.2197301046963,1 44751U 19074AQ  25280.17453687  .00006961  00000+0  48584-3 0  9993,2 44751  53.0532 195.7751 0001425  77.6035 282.5114 15.06393048325053
STARLINK-1047,44752,53.0673,0.0005476,15.28561577,476.35589748333496,483.86705121243995,1 44752U 19074AR  25280.63782535  .00010498  00000+0  38468-3 0  9992,2 44752  53.0673 138.8532 0005476 101.9361 258.2252 15.28561577325903
STARLINK-1048,44753,53.0509,0.0002642,15.06424403,545.307109938286,548.9664245969107,1 44753U 19074AS  25280.66474225  .00000210  00000+0  33024-4 0  9995,2 44753  53.0509 153.5740 0002642  98.4308 261.6980 15.06424403325683
STARLINK-1053,44758,53.0408,0.0001905,15.57261658,394.29583248647486,396.8766210358708,1 44758U 19074AX  25279.98527469  .00052976  00000+0  71566-3 0  9990,2 44758  53.0408 124.1027 0001905 137.3902 222.7257 15.57261658326056
STARLINK-1054,44759,53.0399,0.0007506,15.74294896,341.5907691909779,351.68600199983393,1 44759U 19074AY  25280.66207961  .00251239  00000+0  16593-2 0  9991,2 44759  53.0399 148.8363 0007506  95.4481 264.7394 15.74294896323404
STARLINK-1056,44761,53.0385,0.0006245,15.86686726,307.4018064189331,315.7572623703927,1 44761U 19074BA  25280.87348618  .00315553  00000+0  11717-2 0  9995,2 44761  53.0385 135.7307 0006245 108.9651 251.2050 15.86686726325966
STARLINK-1060,44765,53.0549,6.63e-05,15.52455926,409.1080116536541,410.00806001540604,1 44765U 19074BE  25279.96010095  .00530066  00000+0  79662-2 0  9993,2 44765  53.0549 170.4916 0000663 149.1160 210.9889 15.52455926325381
STARLINK-1063,44768,53.0536,0.0001455,15.06417664,546.1497905131346,548.1650511896014,1 44768U 19074BH  25280.82694538  .00020873  00000+0  14153-2 0  9997,2 44768  53.0536 192.8475 0001455  83.9487 276.1667 15.06417664325165
STARLINK-1067,44771,53.0524,0.0001261,15.06411227,546.3038668997751,548.0504311281566,1 44771U 19074BL  25280.48413945  .00002945  00000+0  21644-3 0  9998,2 44771  53.0524 194.3863 0001261  90.2244 269.8889 15.06411227325109
STARLINK-1068,44772,53.0518,0.0001337,15.06402492,546.2780022466723,548.1298384087668,1 44772U 19074BM  25280.14320221  .00005699  00000+0  40114-3 0  9998,2 44772  53.0518 175.9169 0001337  77.0599 283.0539 15.06402492325325
STARLINK-1112,44925,53.0513,6.41e-05,15.48914167,419.46553923029387,420.3370477395174,1 44925U 20001M   25280.31601824  .00039571  00000+0  72584-3 0  9992,2 44925  53.0513 280.7762 0000641  59.6354 300.4717 15.48914167317210
STARLINK-1114,44927,53.0542,0.0001523,15.0640789,546.1326494276764,548.2421032327065,1 44927U 20001P   25280.38094441  .00003929  00000+0  28245-3 0  9995,2 44927  53.0542 314.8519 0001523  82.9587 277.1575 15.06407890316743
STARLINK-1123,44930,53.0554,0.0001368,15.06398235,546.2695789916097,548.1643558370943,1 44930U 20001S   25280.39568726  .00003338  00000+0  24287-3 0  9998,2 44930  53.0554 314.7834 0001368  92.8346 267.2800 15.06398235316742
STARLINK-1144,44933,53.0459,0.0013239,15.54186085,395.5400531995392,413.4991713775571,1 44933U 20001V   25280.45792810  .00125518  00000+0  18657-2 0  9999,2 44933  53.0459 258.0096 0013239   7.4444 352.6759 15.54186085318846
STARLINK-1091,44940,53.0386,0.0003035,15.8430365,316.2538426107294,320.31857149741154,1 44940U 20001AC  25280.19834032  .00294856  00000+0  12322-2 0  9996,2 44940  53.0386 241.6200 0003035  72.2664 287.8690 15.84303650317748
STARLINK-1094,44941,53.0559,0.000134,15.06392767,546.3057264529343,548.1617258075376,1 44941U 20001AD  25280.40858385  .00000192  00000+0  31781-4 0  9998,2 44941  53.0559 294.7268 0001340  96.1948 263.9194 15.06392767317027
STARLINK-1096,44942,52.9911,0.0003081,15.80878342,325.88938374184545,330.02167795935566,1 44942U 20001AE  25280.80404249  .00184540  00000+0  91812-3 0  9999,2 44942  52.9911  65.3328 0003081 304.0676  56.0052 15.80878342320253
STARLINK-1122,44949,53.0539,0.0001649,15.06401142,546.0660684749228,548.3500472750093,1 44949U 20001AM  25280.36434865 -.00000340  00000+0 -39520-5 0  9991,2 44949  53.0539 294.9203 0001649  87.4766 272.6412 15.06401142317014
STARLINK-1080,44961,53.0541,0.0001521,15.06384705,546.2050826613195,548.3117879527399,1 44961U 20001AZ  25280.36250497 -.00000605  00000+0 -21753-4 0  9994,2 44961  53.0541 274.9324 0001521  91.4580 268.6583 15.06384705317302
STARLINK-1090,44968,53.0544,0.0001358,15.06393246,546.2917929076202,548.1727231981085,1 44968U 20001BG  25280.43254672  .00001355  00000+0  10986-3 0  9994,2 44968  53.0544 274.6189 0001358  85.5775 274.5369 15.06393246317315
STARLINK-1107,44972,53.0117,0.0007601,15.60162467,382.04504707813885,392.329693185613,1 44972U 20001BL  25280.20594168  .00136021  00000+0  16190-2 0  9992,2 44972  53.0117 200.2236 0007601 120.8085 239.3676 15.60162467318330
STARLINK-1132,45044,53.0565,0.0001246,15.06383229,546.4000542797867,548.1258639495973,1 45044U 20006A   25280.25930590  .00001272  00000+0  10430-3 0  9997,2 45044  53.0565 235.3962 0001246  99.3937 260.7193 15.06383229313617
STARLINK-1131,45047,53.0556,0.0001428,15.06400126,546.2222320475239,548.2001114853811,1 45047U 20006D   25280.36810910  .00000042  00000+0  21735-4 0  9990,2 45047  53.0556 255.4464 0001428  91.1973 268.9180 15.06400126313344
STARLINK-1134,45048,53.0374,0.0011104,15.25416487,481.9092248947454,497.16095106773355,1 45048U 20006E   25280.12452670  .00080127  00000+0  31047-2 0  9997,2 45048  53.0374 237.7818 0011104  61.6214 298.5901 15.25416487313574
STARLINK-1156,45054,53.0538,0.0001523,15.06404295,546.1436658325783,548.2531229937167,1 45054U 20006L   25280.33855157  .00000791  00000+0  72013-4 0  9993,2 45054  53.0538 255.0411 0001523  92.0549 268.0614 15.06404295313349
STARLINK-1159,45057,53.0548,0.0001782,15.06400551,545.975772391058,548.443966015242,1 45057U 20006P   25280.35327539 -.00008869  00000+0 -57725-3 0  9994,2 45057  53.0548 254.9721 0001782  98.0440 262.0752 15.06400551313357
STARLINK-1166,45060,53.0556,0.0001379,15.06396442,546.2674556473867,548.1774697872033,1 45060U 20006S   25280.23165461  .00001086  00000+0  91824-4 0  9990,2 45060  53.0556 255.5222 0001379  95.1234 264.9912 15.06396442313334
STARLINK-1169,45061,53.0548,0.0001586,15.06393937,546.1317769939315,548.3285034508108,1 45061U 20006T   25280.23902727 -.00000124  00000+0  10574-4 0  9991,2 45061  53.0548 255.4889 0001586  88.3864 271.7307 15.06393937313337
STARLINK-1171,45062,53.054,0.0001302,15.06397636,546.31712194169,548.1204845928605,1 45062U 20006U   25280.35697738 -.00002484  00000+0 -14796-3 0  9999,2 45062  53.0540 254.9536 0001302  87.6950 272.4188 15.06397636313354
